[{"OBJECT_NAME":"ONEWEB-0435","OBJECT_ID":"2022-012L","EPOCH":"2026-03-09T22:20:25.757952","MEAN_MOTION":13.1037626,"ECCENTRICITY":0.00018269,"INCLINATION":87.8772,"RA_OF_ASC_NODE":56.0428,"ARG_OF_PERICENTER":98.6962,"MEAN_ANOMALY":261.4373,"EPHEMERIS_TYPE":0,"CLASSIFICATION_TYPE":"U","NORAD_CAT_ID":51632,"ELEMENT_SET_NO":999,"REV_AT_EPOCH":19631,"BSTAR":4.7716794e-5,"MEAN_MOTION_DOT":2.9e-7,"MEAN_MOTION_DDOT":0},{"OBJECT_NAME":"SL-14 DEB","OBJECT_ID":"1991-056BD","EPOCH":"2026-03-09T19:16:38.934624","MEAN_MOTION":13.15511547,"ECCENTRICITY":0.0026402,"INCLINATION":82.5605,"RA_OF_ASC_NODE":217.0374,"ARG_OF_PERICENTER":87.5299,"MEAN_ANOMALY":272.8845,"EPHEMERIS_TYPE":0,"CLASSIFICATION_TYPE":"U","NORAD_CAT_ID":45315,"ELEMENT_SET_NO":999,"REV_AT_EPOCH":28954,"BSTAR":0.00066652509,"MEAN_MOTION_DOT":2.64e-6,"MEAN_MOTION_DDOT":0}]
